{
    "links": {
        "self": "http://www.neowsapp.com/rest/v1/neo/3730340?api_key=iIulBulltgU6a56xZRHN4H3l9WmuAYTsLGpBGhQ2"
    },
    "id": "3730340",
    "neo_reference_id": "3730340",
    "name": "(2015 TA206)",
    "designation": "2015 TA206",
    "nasa_jpl_url": "http://ssd.jpl.nasa.gov/sbdb.cgi?sstr=3730340",
    "absolute_magnitude_h": 23.6,
    "estimated_diameter": {
        "kilometers": {
            "estimated_diameter_min": 0.0506471459,
            "estimated_diameter_max": 0.1132504611
        },
        "meters": {
            "estimated_diameter_min": 50.6471458835,
            "estimated_diameter_max": 113.2504610618
        },
        "miles": {
            "estimated_diameter_min": 0.0314706677,
            "estimated_diameter_max": 0.0703705522
        },
        "feet": {
            "estimated_diameter_min": 166.1651821003,
            "estimated_diameter_max": 371.5566426699
        }
    },
    "is_potentially_hazardous_asteroid": false,
    "close_approach_data": [
        {
            "close_approach_date": "2015-10-23",
            "close_approach_date_full": "2015-Oct-23 16:22",
            "epoch_date_close_approach": 1445617320000,
            "relative_velocity": {
                "kilometers_per_second": "8.964114384",
                "kilometers_per_hour": "32270.8117823018",
                "miles_per_hour": "20051.8274655086"
            },
            "miss_distance": {
                "astronomical": "0.1242038679",
                "lunar": "48.3153046131",
                "kilometers": "18580634.083601373",
                "miles": "11545470.6489620274"
            },
            "orbiting_body": "Earth"
        },
        {
            "close_approach_date": "2018-03-28",
            "close_approach_date_full": "2018-Mar-28 17:12",
            "epoch_date_close_approach": 1522257120000,
            "relative_velocity": {
                "kilometers_per_second": "4.287220637",
                "kilometers_per_hour": "15433.9942932603",
                "miles_per_hour": "9590.0838429427"
            },
            "miss_distance": {
                "astronomical": "0.8897036849",
                "lunar": "346.0947334261",
                "kilometers": "133097776.192191163",
                "miles": "82703123.1310495294"
            },
            "orbiting_body": "Juptr"
        }
    ],
    "orbital_data": {
        "orbit_id": "13",
        "orbit_determination_date": "2017-04-06 08:31:19",
        "first_observation_date": "2015-10-13",
        "last_observation_date": "2015-11-23",
        "data_arc_in_days": 41,
        "observations_used": 31,
        "orbit_uncertainty": "7",
        "minimum_orbit_intersection": ".112712",
        "jupiter_tisserand_invariant": "2.992",
        "epoch_osculation": "2459000.5",
        "eccentricity": ".6146488926013893",
        "semi_major_axis": "2.817680487116229",
        "inclination": "9.375322139378962",
        "ascending_node_longitude": "198.1385388194245",
        "orbital_period": "1727.571550540181",
        "perihelion_distance": "1.085796296005696",
        "perihelion_argument": "208.5212189496798",
        "aphelion_distance": "4.549564678226763",
        "perihelion_time": "2459085.381712691053",
        "mean_anomaly": "342.3119241809555",
        "mean_motion": ".2083850014127833",
        "equinox": "J2000",
        "orbit_class": {
            "orbit_class_type": "AMO",
            "orbit_class_description": "Near-Earth asteroid orbits similar to that of 1221 Amor",
            "orbit_class_range": "1.017 AU < q (perihelion) < 1.3 AU"
        }
    },
    "is_sentry_object": false
}